NORAD_CAT_ID,OBJECT_NAME,OBJECT_TYPE,EPOCH,MEAN_MOTION,ECCENTRICITY,INCLINATION,RA_OF_ASC_NODE,ARG_OF_PERICENTER,MEAN_ANOMALY,BSTAR,MEAN_MOTION_DOT,MEAN_MOTION_DDOT,TLE_LINE0,TLE_LINE1,TLE_LINE2,SEMIMAJOR_AXIS,PERIOD,APOGEE,PERIGEE,DECAYED
52838.0,STARLINK-4092,PAYLOAD,2024-03-17 06:28:18,15.08846141,0.0001388,53.2177,37.1823,86.5404,273.5747,0.00033702,5.081e-05,0.0,0 STARLINK-4092,1 52838U 22062J   24077.26965776  .00005081  00000-0  33702-3 0  9998,2 52838  53.2177  37.1823 0001388  86.5404 273.5747 15.08846141 96721,6917.862,95.437,540.687,538.766,0.0
52838.0,STARLINK-4092,PAYLOAD,2024-03-18 06:19:04,15.08860412,0.0001408,53.2179,32.7203,77.9766,282.1384,0.00045327,6.937e-05,0.0,0 STARLINK-4092,1 52838U 22062J   24078.26324875  .00006937  00000-0  45327-3 0  9995,2 52838  53.2179  32.7203 0001408  77.9766 282.1384 15.08860412 97365,6917.818,95.436,540.657,538.709,0.0
52838.0,STARLINK-4092,PAYLOAD,2024-03-19 02:59:04,15.08859468,0.0001622,53.2187,28.8476,126.8779,233.2362,-7.4105e-06,-4.06e-06,0.0,0 STARLINK-4092,1 52838U 22062J   24079.12435790 -.00000406  00000-0 -74105-5 0  9995,2 52838  53.2187  28.8476 0001622 126.8779 233.2362 15.08859468 97494,6917.821,95.436,540.808,538.564,0.0
52838.0,STARLINK-4092,PAYLOAD,2024-03-20 06:00:37,15.0885764,0.0001545,53.2188,23.7938,89.4736,270.6433,2.8672e-05,1.69e-06,0.0,0 STARLINK-4092,1 52838U 22062J   24080.25043015  .00000169  00000-0  28672-4 0  9997,2 52838  53.2188  23.7938 0001545  89.4736 270.6433 15.08857640 97666,6917.826,95.436,540.76,538.623,0.0
52838.0,STARLINK-4092,PAYLOAD,2024-03-21 02:40:39,15.0883467,0.0001485,53.2186,19.931,91.8712,268.245,-0.00020348,-3.524e-05,0.0,0 STARLINK-4092,1 52838U 22062J   24081.11156385 -.00003524  00000-0 -20348-3 0  9999,2 52838  53.2186  19.9310 0001485  91.8712 268.2450 15.08834670 97793,6917.897,95.438,540.789,538.734,0.0
52838.0,STARLINK-4092,PAYLOAD,2024-03-21 05:51:25,15.0883502,0.0001569,53.2187,19.3348,94.4193,265.6978,-0.00014945,-2.665e-05,0.0,0 STARLINK-4092,1 52838U 22062J   24081.24404425 -.00002665  00000-0 -14945-3 0  9995,2 52838  53.2187  19.3348 0001569  94.4193 265.6978 15.08835020 97329,6917.896,95.438,540.846,538.675,0.0
52838.0,STARLINK-4092,PAYLOAD,2024-03-22 02:31:25,15.08832511,0.0001504,53.2179,15.465,93.4268,266.6896,-5.2958e-05,-1.131e-05,0.0,0 STARLINK-4092,1 52838U 22062J   24082.10515994 -.00001131  00000-0 -52958-4 0  9999,2 52838  53.2179  15.4650 0001504  93.4268 266.6896 15.08832511 97944,6917.903,95.438,540.809,538.728,0.0
52838.0,STARLINK-4092,PAYLOAD,2024-03-22 20:00:40,15.08832178,0.0001213,53.2185,12.199,96.1983,263.9148,5.024e-05,5.12e-06,0.0,0 STARLINK-4092,1 52838U 22062J   24082.83380772  .00000512  00000-0  50240-4 0  9995,2 52838  53.2185  12.1990 0001213  96.1983 263.9148 15.08832178 97560,6917.904,95.438,540.608,538.93,0.0
52838.0,STARLINK-4092,PAYLOAD,2024-03-23 05:32:58,15.08855377,0.0001432,53.2186,10.4143,113.6418,246.4724,0.00030161,4.517e-05,0.0,0 STARLINK-4092,1 52838U 22062J   24083.23123649  .00004517  00000-0  30161-3 0  9996,2 52838  53.2186  10.4143 0001432 113.6418 246.4724 15.08855377 98117,6917.833,95.437,540.689,538.708,0.0
52838.0,STARLINK-4092,PAYLOAD,2024-03-24 03:48:22,15.08854029,0.0001356,53.2186,6.2543,114.546,245.5674,0.00043174,6.592e-05,0.0,0 STARLINK-4092,1 52838U 22062J   24084.15859943  .00006592  00000-0  43174-3 0  9994,2 52838  53.2186   6.2543 0001356 114.5460 245.5674 15.08854029 98258,6917.838,95.437,540.641,538.764,0.0
52838.0,STARLINK-4092,PAYLOAD,2024-03-24 11:45:19,15.08838674,0.0001504,53.2192,4.7642,83.549,276.5674,0.00015438,2.17e-05,0.0,0 STARLINK-4092,1 52838U 22062J   24084.48980432  .00002170  00000-0  15438-3 0  9998,2 52838  53.2192   4.7642 0001504  83.5490 276.5674 15.08838674 98309,6917.884,95.438,540.79,538.709,0.0
52838.0,STARLINK-4092,PAYLOAD,2024-03-24 22:53:01,15.08848021,0.0001699,53.2188,2.6814,96.7335,263.385,0.0004701,7.203e-05,0.0,0 STARLINK-4092,1 52838U 22062J   24084.95348424  .00007203  00000-0  47010-3 0  9992,2 52838  53.2188   2.6814 0001699  96.7335 263.3850 15.08848021 97880,6917.856,95.437,540.896,538.546,0.0
52838.0,STARLINK-4092,PAYLOAD,2024-03-25 02:03:47,15.08865764,0.0001479,53.2188,2.0875,98.8014,261.3146,0.0013593,0.00021427,0.0,0 STARLINK-4092,1 52838U 22062J   24085.08596105  .00021427  00000-0  13593-2 0  9990,2 52838  53.2188   2.0875 0001479  98.8014 261.3146 15.08865764 98390,6917.802,95.436,540.69,538.643,0.0
52838.0,STARLINK-4092,PAYLOAD,2024-03-25 11:36:06,15.08842484,0.0001732,53.2207,0.2988,98.6864,261.4325,0.00040243,6.123e-05,0.0,0 STARLINK-4092,1 52838U 22062J   24085.48340656  .00006123  00000-0  40243-3 0  9991,2 52838  53.2207   0.2988 0001732  98.6864 261.4325 15.08842484 98451,6917.873,95.437,540.936,538.54,0.0
52838.0,STARLINK-4092,PAYLOAD,2024-03-25 22:43:48,15.08822286,0.0001073,53.2193,358.2223,87.6648,272.4467,-0.00022551,-3.873e-05,0.0,0 STARLINK-4092,1 52838U 22062J   24085.94709486 -.00003873  00000-0 -22551-3 0  9995,2 52838  53.2193 358.2223 0001073  87.6648 272.4467 15.08822286 98030,6917.935,95.439,540.542,539.057,0.0
52838.0,STARLINK-4092,PAYLOAD,2024-03-26 03:29:59,15.08796031,0.0002105,53.2189,357.3345,57.7321,302.3875,-0.00062813,-0.00010259,0.0,0 STARLINK-4092,1 52838U 22062J   24086.14583205 -.00010259  00000-0 -62813-3 0  9998,2 52838  53.2189 357.3345 0002105  57.7321 302.3875 15.08796031 98554,6918.015,95.44,541.336,538.424,0.0
52838.0,STARLINK-4092,PAYLOAD,2024-03-26 11:26:56,15.0879146,0.0001372,53.2175,355.849,94.2791,265.8358,-0.00050763,-8.347e-05,0.0,0 STARLINK-4092,1 52838U 22062J   24086.47704000 -.00008347  00000-0 -50763-3 0  9998,2 52838  53.2175 355.8490 0001372  94.2791 265.8358 15.08791460 98117,6918.029,95.441,540.843,538.945,0.0
52838.0,STARLINK-4092,PAYLOAD,2024-03-26 22:34:37,15.08838807,0.0001717,53.22,353.7635,89.4014,270.7175,0.00063001,9.752e-05,0.0,0 STARLINK-4092,1 52838U 22062J   24086.94071299  .00009752  00000-0  63001-3 0  9995,2 52838  53.2200 353.7635 0001717  89.4014 270.7175 15.08838807 98187,6917.884,95.438,540.937,538.561,0.0
52838.0,STARLINK-4092,PAYLOAD,2024-03-27 00:10:00,15.08840331,0.0001407,53.2197,353.4661,93.7536,266.3617,0.00050318,7.729e-05,0.0,0 STARLINK-4092,1 52838U 22062J   24087.00695080  .00007729  00000-0  50318-3 0  9992,2 52838  53.2197 353.4661 0001407  93.7536 266.3617 15.08840331 98683,6917.879,95.438,540.718,538.771,0.0
52838.0,STARLINK-4092,PAYLOAD,2024-03-27 11:17:42,15.0884661,0.0001623,53.2183,351.3848,98.4776,261.64,0.00075418,0.00011737,0.0,0 STARLINK-4092,1 52838U 22062J   24087.47063188  .00011737  00000-0  75418-3 0  9993,2 52838  53.2183 351.3848 0001623  98.4776 261.6400 15.08846610 98268,6917.86,95.437,540.848,538.602,0.0
52838.0,STARLINK-4092,PAYLOAD,2024-03-27 22:25:24,15.08848425,0.0001655,53.2192,349.3019,100.7847,259.3331,0.00054211,8.352e-05,0.0,0 STARLINK-4092,1 52838U 22062J   24087.93430871  .00008352  00000-0  54211-3 0  9998,2 52838  53.2192 349.3019 0001655 100.7847 259.3331 15.08848425 98337,6917.855,95.437,540.865,538.575,0.0
52838.0,STARLINK-4092,PAYLOAD,2024-03-28 03:11:33,15.08855199,0.0001584,53.2192,348.411,108.4921,251.6243,0.00062533,9.682e-05,0.0,0 STARLINK-4092,1 52838U 22062J   24088.13302408  .00009682  00000-0  62533-3 0  9998,2 52838  53.2192 348.4110 0001584 108.4921 251.6243 15.08855199 98858,6917.834,95.437,540.795,538.603,0.0
52838.0,STARLINK-4092,PAYLOAD,2024-03-28 22:16:10,15.0884812,0.0001518,53.2186,344.8426,107.3025,252.8133,-7.5381e-05,-1.488e-05,0.0,0 STARLINK-4092,1 52838U 22062J   24088.92790082 -.00001488  00000-0 -75381-4 0  9998,2 52838  53.2186 344.8426 0001518 107.3025 252.8133 15.08848120 98487,6917.856,95.437,540.771,538.67,0.0
52838.0,STARLINK-4092,PAYLOAD,2024-03-28 23:51:33,15.08848402,0.0001236,53.2175,344.5463,87.1486,272.9648,-1.5097e-05,-5.28e-06,0.0,0 STARLINK-4092,1 52838U 22062J   24088.99414231 -.00000528  00000-0 -15097-4 0  9996,2 52838  53.2175 344.5463 0001236  87.1486 272.9648 15.08848402 98988,6917.855,95.437,540.575,538.865,0.0
52838.0,STARLINK-4092,PAYLOAD,2024-03-29 09:23:52,15.08848779,0.0001274,53.2178,342.763,87.9527,272.1611,-2.0399e-06,-3.2e-06,0.0,0 STARLINK-4092,1 52838U 22062J   24089.39158035 -.00000320  00000-0 -20399-5 0  9990,2 52838  53.2178 342.7630 0001274  87.9527 272.1611 15.08848779 98555,6917.854,95.437,540.6,538.837,0.0
52838.0,STARLINK-4092,PAYLOAD,2024-03-29 22:06:57,15.08845779,0.0001166,53.2184,340.3844,88.5749,271.5377,3.7905e-05,3.16e-06,0.0,0 STARLINK-4092,1 52838U 22062J   24089.92150032  .00000316  00000-0  37905-4 0  9991,2 52838  53.2184 340.3844 0001166  88.5749 271.5377 15.08845779 98634,6917.863,95.437,540.534,538.921,0.0
52838.0,STARLINK-4092,PAYLOAD,2024-03-30 02:53:06,15.08857471,0.000125,53.2175,339.4907,98.3929,261.7204,0.00011341,1.518e-05,0.0,0 STARLINK-4092,1 52838U 22062J   24090.12020994  .00001518  00000-0  11341-3 0  9998,2 52838  53.2175 339.4907 0001250  98.3929 261.7204 15.08857471 99156,6917.827,95.436,540.557,538.827,0.0
52838.0,STARLINK-4092,PAYLOAD,2024-03-30 09:14:39,15.08844318,0.0001078,53.2175,338.3003,88.2599,271.8517,0.00025072,3.705e-05,0.0,0 STARLINK-4092,1 52838U 22062J   24090.38517856  .00003705  00000-0  25072-3 0  9990,2 52838  53.2175 338.3003 0001078  88.2599 271.8517 15.08844318 99199,6917.867,95.437,540.478,538.986,0.0
52838.0,STARLINK-4092,PAYLOAD,2024-03-30 20:22:22,15.08833118,0.0001339,53.2186,336.2247,98.735,261.3793,-1.696e-05,-5.58e-06,0.0,0 STARLINK-4092,1 52838U 22062J   24090.84886647 -.00000558  00000-0 -16960-4 0  9990,2 52838  53.2186 336.2247 0001339  98.7350 261.3793 15.08833118 99263,6917.901,95.438,540.693,538.84,0.0
52838.0,STARLINK-4092,PAYLOAD,2024-03-30 23:33:08,15.08834012,0.0001315,53.2185,335.6302,99.5081,260.606,-7.1293e-06,-4.01e-06,0.0,0 STARLINK-4092,1 52838U 22062J   24090.98134633 -.00000401  00000-0 -71293-5 0  9994,2 52838  53.2185 335.6302 0001315  99.5081 260.6060 15.08834012 98791,6917.899,95.438,540.673,538.854,0.0
